STARLINK-32594          
1 62302U 24239B   26068.62843154  .00022914  00000+0  78336-3 0  9995
2 62302  53.1575 191.9864 0000932 102.3790 257.7315 15.30200467 69402
NUSHSAT1                
1 63211U 25052B   26068.64700493  .00023034  00000+0  74857-3 0  9997
2 63211  97.4095 325.7239 0005501  84.7512 275.4357 15.31903202 54882
